[{"OBJECT_NAME":"HORUS 1","OBJECT_ID":"2023-025A","EPOCH":"2026-03-09T23:16:57.631008","MEAN_MOTION":15.23575294,"ECCENTRICITY":0.00030668,"INCLINATION":97.3529,"RA_OF_ASC_NODE":145.6167,"ARG_OF_PERICENTER":124.3269,"MEAN_ANOMALY":235.8259,"EPHEMERIS_TYPE":0,"CLASSIFICATION_TYPE":"U","NORAD_CAT_ID":55690,"ELEMENT_SET_NO":999,"REV_AT_EPOCH":16894,"BSTAR":0.00035630129,"MEAN_MOTION_DOT":8.456e-5,"MEAN_MOTION_DDOT":0},{"OBJECT_NAME":"OBJECT G","OBJECT_ID":"2025-055G","EPOCH":"2026-03-09T23:08:21.696000","MEAN_MOTION":15.22125156,"ECCENTRICITY":0.00098901,"INCLINATION":97.6329,"RA_OF_ASC_NODE":210.2777,"ARG_OF_PERICENTER":141.6478,"MEAN_ANOMALY":218.5462,"EPHEMERIS_TYPE":0,"CLASSIFICATION_TYPE":"U","NORAD_CAT_ID":63297,"ELEMENT_SET_NO":999,"REV_AT_EPOCH":5412,"BSTAR":0.0009330302,"MEAN_MOTION_DOT":0.00021381,"MEAN_MOTION_DDOT":0}]
